[
    {
        "Altitude(m)": 554605.4460202786,
        "Argument of Periapsis(deg)": 0.019868973332140504,
        "Eccentricity": 0.0,
        "Inclination(deg)": 53.0,
        "Latitude(deg)": -2.506791455235251,
        "Longitude(deg)": 124.49991523393464,
        "Mean Anomaly(deg)": 183.00207860273275,
        "RAAN(deg)": 44.97043010558405,
        "Satellite Name": "Starlink Shell 1 207",
        "Satellite Number": 207,
        "Semi-Major Axis(m)": 6931778.249405717,
        "Time(s)": 570
    },
    {
        "Altitude(m)": 554685.9747204136,
        "Argument of Periapsis(deg)": 0.02021755181165174,
        "Eccentricity": 0.0,
        "Inclination(deg)": 53.0,
        "Latitude(deg)": -3.0103347489750933,
        "Longitude(deg)": 124.83611077747018,
        "Mean Anomaly(deg)": 183.62890980628944,
        "RAAN(deg)": 44.96991133550658,
        "Satellite Name": "Starlink Shell 1 207",
        "Satellite Number": 207,
        "Semi-Major Axis(m)": 6931778.249405717,
        "Time(s)": 580
    },
    {
        "Altitude(m)": 554769.2277229348,
        "Argument of Periapsis(deg)": 0.020566130291162974,
        "Eccentricity": 0.0,
        "Inclination(deg)": 53.0,
        "Latitude(deg)": -3.513731337554126,
        "Longitude(deg)": 125.17264489317847,
        "Mean Anomaly(deg)": 184.25574100984622,
        "RAAN(deg)": 44.969392565429104,
        "Satellite Name": "Starlink Shell 1 207",
        "Satellite Number": 207,
        "Semi-Major Axis(m)": 6931778.249405717,
        "Time(s)": 590
    },
    {
        "Altitude(m)": 554855.1883178002,
        "Argument of Periapsis(deg)": 0.020914708770674213,
        "Eccentricity": 0.0,
        "Inclination(deg)": 53.0,
        "Latitude(deg)": -4.016958107640346,
        "Longitude(deg)": 125.50957559675498,
        "Mean Anomaly(deg)": 184.8825722134029,
        "RAAN(deg)": 44.968873795351634,
        "Satellite Name": "Starlink Shell 1 207",
        "Satellite Number": 207,
        "Semi-Major Axis(m)": 6931778.249405717,
        "Time(s)": 600
    },
    {
        "Altitude(m)": 554943.8384650123,
        "Argument of Periapsis(deg)": 0.021263287250185448,
        "Eccentricity": 0.0,
        "Inclination(deg)": 53.0,
        "Latitude(deg)": -4.519991867660774,
        "Longitude(deg)": 125.84696107446516,
        "Mean Anomaly(deg)": 185.5094034169596,
        "RAAN(deg)": 44.968355025274164,
        "Satellite Name": "Starlink Shell 1 207",
        "Satellite Number": 207,
        "Semi-Major Axis(m)": 6931778.249405717,
        "Time(s)": 610
    },
    {
        "Altitude(m)": 555035.1588008605,
        "Argument of Periapsis(deg)": 0.021611865729696686,
        "Eccentricity": 0.0,
        "Inclination(deg)": 53.0,
        "Latitude(deg)": -5.022809335828095,
        "Longitude(deg)": 126.18486021282769,
        "Mean Anomaly(deg)": 186.13623462051632,
        "RAAN(deg)": 44.96783625519669,
        "Satellite Name": "Starlink Shell 1 207",
        "Satellite Number": 207,
        "Semi-Major Axis(m)": 6931778.249405717,
        "Time(s)": 620
    },
    {
        "Altitude(m)": 555129.128644851,
        "Argument of Periapsis(deg)": 0.02196044420920792,
        "Eccentricity": 0.0,
        "Inclination(deg)": 53.0,
        "Latitude(deg)": -5.525387128077809,
        "Longitude(deg)": 126.52333144738013,
        "Mean Anomaly(deg)": 186.76306582407307,
        "RAAN(deg)": 44.96731748511921,
        "Satellite Name": "Starlink Shell 1 207",
        "Satellite Number": 207,
        "Semi-Major Axis(m)": 6931778.249405717,
        "Time(s)": 630
    },
    {
        "Altitude(m)": 555225.7260072827,
        "Argument of Periapsis(deg)": 0.02230902268871916,
        "Eccentricity": 0.0,
        "Inclination(deg)": 53.0,
        "Latitude(deg)": -6.027701745909106,
        "Longitude(deg)": 126.86243413295782,
        "Mean Anomaly(deg)": 187.3898970276298,
        "RAAN(deg)": 44.96679871504174,
        "Satellite Name": "Starlink Shell 1 207",
        "Satellite Number": 207,
        "Semi-Major Axis(m)": 6931778.249405717,
        "Time(s)": 640
    },
    {
        "Altitude(m)": 555324.9275974819,
        "Argument of Periapsis(deg)": 0.022657601168230398,
        "Eccentricity": 0.0,
        "Inclination(deg)": 53.0,
        "Latitude(deg)": -6.529729564112125,
        "Longitude(deg)": 127.2022273925802,
        "Mean Anomaly(deg)": 188.01672823118648,
        "RAAN(deg)": 44.96627994496427,
        "Satellite Name": "Starlink Shell 1 207",
        "Satellite Number": 207,
        "Semi-Major Axis(m)": 6931778.249405717,
        "Time(s)": 650
    },
    {
        "Altitude(m)": 555426.7088326821,
        "Argument of Periapsis(deg)": 0.023006179647741636,
        "Eccentricity": 0.0,
        "Inclination(deg)": 53.0,
        "Latitude(deg)": -7.031446818375812,
        "Longitude(deg)": 127.54277064737701,
        "Mean Anomaly(deg)": 188.64355943474317,
        "RAAN(deg)": 44.965761174886794,
        "Satellite Name": "Starlink Shell 1 207",
        "Satellite Number": 207,
        "Semi-Major Axis(m)": 6931778.249405717,
        "Time(s)": 660
    },
    {
        "Altitude(m)": 555531.0438475576,
        "Argument of Periapsis(deg)": 0.023354758127252868,
        "Eccentricity": 0.0,
        "Inclination(deg)": 53.0,
        "Latitude(deg)": -7.532829592760482,
        "Longitude(deg)": 127.88412414658579,
        "Mean Anomaly(deg)": 189.2703906382999,
        "RAAN(deg)": 44.965242404809324,
        "Satellite Name": "Starlink Shell 1 207",
        "Satellite Number": 207,
        "Semi-Major Axis(m)": 6931778.249405717,
        "Time(s)": 670
    },
    {
        "Altitude(m)": 555637.9055043973,
        "Argument of Periapsis(deg)": 0.023703336606764106,
        "Eccentricity": 0.0,
        "Inclination(deg)": 53.0,
        "Latitude(deg)": -8.033853807024958,
        "Longitude(deg)": 128.22634798475423,
        "Mean Anomaly(deg)": 189.89722184185666,
        "RAAN(deg)": 44.96472363473185,
        "Satellite Name": "Starlink Shell 1 207",
        "Satellite Number": 207,
        "Semi-Major Axis(m)": 6931778.249405717,
        "Time(s)": 680
    },
    {
        "Altitude(m)": 555747.2654039033,
        "Argument of Periapsis(deg)": 0.024051915086275345,
        "Eccentricity": 0.0,
        "Inclination(deg)": 53.0,
        "Latitude(deg)": -8.534495203797313,
        "Longitude(deg)": 128.56950263189472,
        "Mean Anomaly(deg)": 190.52405304541338,
        "RAAN(deg)": 44.96420486465438,
        "Satellite Name": "Starlink Shell 1 207",
        "Satellite Number": 207,
        "Semi-Major Axis(m)": 6931778.249405717,
        "Time(s)": 690
    },
    {
        "Altitude(m)": 555859.093896619,
        "Argument of Periapsis(deg)": 0.024400493565786583,
        "Eccentricity": 0.0,
        "Inclination(deg)": 53.0,
        "Latitude(deg)": -9.034729335577495,
        "Longitude(deg)": 128.91364946372119,
        "Mean Anomaly(deg)": 191.15088424897007,
        "RAAN(deg)": 44.9636860945769,
        "Satellite Name": "Starlink Shell 1 207",
        "Satellite Number": 207,
        "Semi-Major Axis(m)": 6931778.249405717,
        "Time(s)": 700
    },
    {
        "Altitude(m)": 555973.3600950008,
        "Argument of Periapsis(deg)": 0.024749072045297815,
        "Eccentricity": 0.0,
        "Inclination(deg)": 53.0,
        "Latitude(deg)": -9.534531551557047,
        "Longitude(deg)": 129.25884977909604,
        "Mean Anomaly(deg)": 191.7777154525267,
        "RAAN(deg)": 44.96316732449943,
        "Satellite Name": "Starlink Shell 1 207",
        "Satellite Number": 207,
        "Semi-Major Axis(m)": 6931778.249405717,
        "Time(s)": 710
    },
    {
        "Altitude(m)": 556090.0318860755,
        "Argument of Periapsis(deg)": 0.025097650524809053,
        "Eccentricity": 0.0,
        "Inclination(deg)": 53.0,
        "Latitude(deg)": -10.033876984248547,
        "Longitude(deg)": 129.60516533043503,
        "Mean Anomaly(deg)": 192.40454665608345,
        "RAAN(deg)": 44.96264855442196,
        "Satellite Name": "Starlink Shell 1 207",
        "Satellite Number": 207,
        "Semi-Major Axis(m)": 6931778.249405717,
        "Time(s)": 720
    },
    {
        "Altitude(m)": 556209.0759447316,
        "Argument of Periapsis(deg)": 0.02544622900432029,
        "Eccentricity": 0.0,
        "Inclination(deg)": 53.0,
        "Latitude(deg)": -10.532740535909907,
        "Longitude(deg)": 129.95265885419454,
        "Mean Anomaly(deg)": 193.0313778596402,
        "RAAN(deg)": 44.962129784344484,
        "Satellite Name": "Starlink Shell 1 207",
        "Satellite Number": 207,
        "Semi-Major Axis(m)": 6931778.249405717,
        "Time(s)": 730
    },
    {
        "Altitude(m)": 556330.4577476031,
        "Argument of Periapsis(deg)": 0.02579480748383153,
        "Eccentricity": 0.0,
        "Inclination(deg)": 53.0,
        "Latitude(deg)": -11.031096864750793,
        "Longitude(deg)": 130.30139308856852,
        "Mean Anomaly(deg)": 193.6582090631969,
        "RAAN(deg)": 44.961611014267014,
        "Satellite Name": "Starlink Shell 1 207",
        "Satellite Number": 207,
        "Semi-Major Axis(m)": 6931778.249405717,
        "Time(s)": 740
    },
    {
        "Altitude(m)": 556454.1415875407,
        "Argument of Periapsis(deg)": 0.026143385963342765,
        "Eccentricity": 0.0,
        "Inclination(deg)": 53.0,
        "Latitude(deg)": -11.528920370912298,
        "Longitude(deg)": 130.6514313041374,
        "Mean Anomaly(deg)": 194.28504026675364,
        "RAAN(deg)": 44.961092244189544,
        "Satellite Name": "Starlink Shell 1 207",
        "Satellite Number": 207,
        "Semi-Major Axis(m)": 6931778.249405717,
        "Time(s)": 750
    }
]